{
  "norad_id": 60189,
  "name": "STARLINK-11183 [DTC]",
  "history": [
    {
      "epoch": "2026-03-28T10:23:25.484640Z",
      "apogee_km": 360.51329015273495,
      "perigee_km": 358.7878775082663,
      "latitude_deg": -3.512673395491173e-05,
      "longitude_deg": 87.46173301056776,
      "height_km": 360.7686651574709,
      "semi_major_axis_km": 6737.7875838305,
      "eccentricity": 0.00012804,
      "inclination_deg": 53.1578,
      "raan_deg": 69.1714,
      "arg_perigee_deg": 103.7359,
      "mean_anomaly_deg": 256.3801,
      "mean_motion_rev_day": 15.69736617
    },
    {
      "epoch": "2026-03-29T04:43:39.549792Z",
      "apogee_km": 360.5691099069154,
      "perigee_km": 358.9344980830665,
      "latitude_deg": 3.5233580102732716e-05,
      "longitude_deg": 167.8837968098151,
      "height_km": 360.9601841511438,
      "semi_major_axis_km": 6737.888803994991,
      "eccentricity": 0.0001213,
      "inclination_deg": 53.1586,
      "raan_deg": 65.4051,
      "arg_perigee_deg": 111.1529,
      "mean_anomaly_deg": 248.9619,
      "mean_motion_rev_day": 15.69701245
    },
    {
      "epoch": "2026-03-30T02:07:13.250784Z",
      "apogee_km": 360.2805343499931,
      "perigee_km": 359.20651619426553,
      "latitude_deg": 4.3157861674599146e-05,
      "longitude_deg": -158.27848433008646,
      "height_km": 360.80992378981097,
      "semi_major_axis_km": 6737.8805252721295,
      "eccentricity": 7.97e-05,
      "inclination_deg": 53.1587,
      "raan_deg": 61.0118,
      "arg_perigee_deg": 106.4923,
      "mean_anomaly_deg": 253.6183,
      "mean_motion_rev_day": 15.69704138
    },
    {
      "epoch": "2026-03-30T05:10:36.244128Z",
      "apogee_km": 360.36865298328576,
      "perigee_km": 359.1571785784272,
      "latitude_deg": -5.290749398785638e-06,
      "longitude_deg": 155.12155276651444,
      "height_km": 360.7524551105715,
      "semi_major_axis_km": 6737.899915780856,
      "eccentricity": 8.99e-05,
      "inclination_deg": 53.1579,
      "raan_deg": 60.3832,
      "arg_perigee_deg": 97.1924,
      "mean_anomaly_deg": 262.9196,
      "mean_motion_rev_day": 15.69697362
    },
    {
      "epoch": "2026-03-31T14:47:38.528160Z",
      "apogee_km": 360.63572906082027,
      "perigee_km": 358.85827526105004,
      "latitude_deg": 3.456112975839487e-06,
      "longitude_deg": 2.5774307557492135,
      "height_km": 360.68893031484316,
      "semi_major_axis_km": 6737.884002160935,
      "eccentricity": 0.0001319,
      "inclination_deg": 53.1609,
      "raan_deg": 53.4792,
      "arg_perigee_deg": 91.8359,
      "mean_anomaly_deg": 268.281,
      "mean_motion_rev_day": 15.69702923
    },
    {
      "epoch": "2026-04-01T07:36:07.097184Z",
      "apogee_km": 360.46185808112386,
      "perigee_km": 358.8313144532458,
      "latitude_deg": -4.6635563016587985e-05,
      "longitude_deg": 106.31227937082853,
      "height_km": 360.65736182247446,
      "semi_major_axis_km": 6737.783586267185,
      "eccentricity": 0.000121,
      "inclination_deg": 53.1602,
      "raan_deg": 50.0234,
      "arg_perigee_deg": 96.8485,
      "mean_anomaly_deg": 263.267,
      "mean_motion_rev_day": 15.69738014
    },
    {
      "epoch": "2026-04-02T20:16:32.969856Z",
      "apogee_km": 360.3129943486738,
      "perigee_km": 358.90507493727455,
      "latitude_deg": -4.957921420567451e-05,
      "longitude_deg": -92.83366583841507,
      "height_km": 360.61321283976775,
      "semi_major_axis_km": 6737.746034642973,
      "eccentricity": 0.00010448,
      "inclination_deg": 53.158,
      "raan_deg": 42.4914,
      "arg_perigee_deg": 97.3971,
      "mean_anomaly_deg": 262.7165,
      "mean_motion_rev_day": 15.69751137
    },
    {
      "epoch": "2026-04-03T05:26:38.754816Z",
      "apogee_km": 360.32896185371465,
      "perigee_km": 358.8331884410327,
      "latitude_deg": 1.5104129061339103e-05,
      "longitude_deg": 127.38235082676732,
      "height_km": 360.2157178909704,
      "semi_major_axis_km": 6737.718075147373,
      "eccentricity": 0.000111,
      "inclination_deg": 53.158,
      "raan_deg": 40.608,
      "arg_perigee_deg": 68.1032,
      "mean_anomaly_deg": 292.0104,
      "mean_motion_rev_day": 15.69760908
    },
    {
      "epoch": "2026-04-04T02:50:15.510048Z",
      "apogee_km": 360.4492448899491,
      "perigee_km": 358.8212643577872,
      "latitude_deg": 1.2756631893295683e-05,
      "longitude_deg": 161.207700511207,
      "height_km": 360.7023776581149,
      "semi_major_axis_km": 6737.772254623867,
      "eccentricity": 0.00012081,
      "inclination_deg": 53.1578,
      "raan_deg": 36.2151,
      "arg_perigee_deg": 100.8923,
      "mean_anomaly_deg": 259.2231,
      "mean_motion_rev_day": 15.69741974
    },
    {
      "epoch": "2026-04-05T04:48:52.818912Z",
      "apogee_km": 360.689016293265,
      "perigee_km": 358.89847857644145,
      "latitude_deg": 3.0318597754457532e-06,
      "longitude_deg": 125.1472997450499,
      "height_km": 360.2068660133815,
      "semi_major_axis_km": 6737.9307474348525,
      "eccentricity": 0.00013287,
      "inclination_deg": 53.157,
      "raan_deg": 30.877,
      "arg_perigee_deg": 56.0323,
      "mean_anomaly_deg": 304.0821,
      "mean_motion_rev_day": 15.69686588
    },
    {
      "epoch": "2026-04-06T06:47:30.259104Z",
      "apogee_km": 360.5704073559191,
      "perigee_km": 358.79121918414694,
      "latitude_deg": -8.597377417250304e-06,
      "longitude_deg": 89.09084792491717,
      "height_km": 360.1968348209773,
      "semi_major_axis_km": 6737.817813270032,
      "eccentricity": 0.00013203,
      "inclination_deg": 53.157,
      "raan_deg": 25.5434,
      "arg_perigee_deg": 63.4799,
      "mean_anomaly_deg": 296.6354,
      "mean_motion_rev_day": 15.69726053
    },
    {
      "epoch": "2026-04-07T01:07:42.591072Z",
      "apogee_km": 360.7433516311621,
      "perigee_km": 358.7555403718634,
      "latitude_deg": 2.557460787973364e-05,
      "longitude_deg": 169.5191243397086,
      "height_km": 360.3975286520143,
      "semi_major_axis_km": 6737.886446001513,
      "eccentricity": 0.00014751,
      "inclination_deg": 53.1573,
      "raan_deg": 21.7761,
      "arg_perigee_deg": 74.5461,
      "mean_anomaly_deg": 285.572,
      "mean_motion_rev_day": 15.69702069
    },
    {
      "epoch": "2026-04-08T01:34:39.126432Z",
      "apogee_km": 360.47584950673627,
      "perigee_km": 359.0631800268511,
      "latitude_deg": 3.2891733756026554e-05,
      "longitude_deg": 156.75847649891392,
      "height_km": 360.5181593869009,
      "semi_major_axis_km": 6737.906514766793,
      "eccentricity": 0.00010483,
      "inclination_deg": 53.1569,
      "raan_deg": 16.7551,
      "arg_perigee_deg": 76.5096,
      "mean_anomaly_deg": 283.6039,
      "mean_motion_rev_day": 15.69695056
    },
    {
      "epoch": "2026-04-09T11:11:41.457120Z",
      "apogee_km": 360.2365586941305,
      "perigee_km": 359.14327889828655,
      "latitude_deg": -6.06512186309115e-05,
      "longitude_deg": 4.212577331717532,
      "height_km": 360.3956163856325,
      "semi_major_axis_km": 6737.826918796208,
      "eccentricity": 8.113e-05,
      "inclination_deg": 53.1577,
      "raan_deg": 9.8496,
      "arg_perigee_deg": 67.6135,
      "mean_anomaly_deg": 292.4968,
      "mean_motion_rev_day": 15.69722871
    },
    {
      "epoch": "2026-04-10T04:00:12.853152Z",
      "apogee_km": 360.3833302366693,
      "perigee_km": 359.0460014380351,
      "latitude_deg": 2.26502623444035e-05,
      "longitude_deg": 107.93891099767005,
      "height_km": 360.3707525252254,
      "semi_major_axis_km": 6737.851665837352,
      "eccentricity": 9.924e-05,
      "inclination_deg": 53.1576,
      "raan_deg": 6.397,
      "arg_perigee_deg": 67.3449,
      "mean_anomaly_deg": 292.7674,
      "mean_motion_rev_day": 15.69714223
    },
    {
      "epoch": "2026-04-11T10:33:53.585856Z",
      "apogee_km": 360.5666588988606,
      "perigee_km": 358.9522589073076,
      "latitude_deg": 3.403037978384359e-05,
      "longitude_deg": 1.9855886090663115,
      "height_km": 360.9698522199846,
      "semi_major_axis_km": 6737.896458903084,
      "eccentricity": 0.0001198,
      "inclination_deg": 53.1583,
      "raan_deg": 0.1185,
      "arg_perigee_deg": 111.5851,
      "mean_anomaly_deg": 248.5295,
      "mean_motion_rev_day": 15.6969857
    },
    {
      "epoch": "2026-04-12T23:14:18.521952Z",
      "apogee_km": 360.2994092228864,
      "perigee_km": 359.12567583257714,
      "latitude_deg": 6.121504344757964e-05,
      "longitude_deg": 162.8443761361553,
      "height_km": 360.6809646116734,
      "semi_major_axis_km": 6737.8495425277315,
      "eccentricity": 8.71e-05,
      "inclination_deg": 53.1582,
      "raan_deg": 352.5873,
      "arg_perigee_deg": 95.3441,
      "mean_anomaly_deg": 264.7677,
      "mean_motion_rev_day": 15.69714965
    },
    {
      "epoch": "2026-04-14T19:33:06.827040Z",
      "apogee_km": 360.28042168171396,
      "perigee_km": 358.9706006495435,
      "latitude_deg": -1.7723248854895274e-05,
      "longitude_deg": -152.77893948743792,
      "height_km": 360.5348478958385,
      "semi_major_axis_km": 6737.762511165629,
      "eccentricity": 9.72e-05,
      "inclination_deg": 53.1565,
      "raan_deg": 343.4852,
      "arg_perigee_deg": 89.639,
      "mean_anomaly_deg": 270.4739,
      "mean_motion_rev_day": 15.69745379
    },
    {
      "epoch": "2026-04-14T22:36:28.958112Z",
      "apogee_km": 360.38014938571905,
      "perigee_km": 358.88301720651,
      "latitude_deg": 2.434227373924692e-06,
      "longitude_deg": 160.62385140456743,
      "height_km": 360.20269339807544,
      "semi_major_axis_km": 6737.768583296114,
      "eccentricity": 0.0001111,
      "inclination_deg": 53.1576,
      "raan_deg": 342.8557,
      "arg_perigee_deg": 62.7753,
      "mean_anomaly_deg": 297.3378,
      "mean_motion_rev_day": 15.69743257
    },
    {
      "epoch": "2026-04-16T08:13:33.081600Z",
      "apogee_km": 360.5321831180636,
      "perigee_km": 358.9056646980316,
      "latitude_deg": -8.105078898549413e-06,
      "longitude_deg": 8.070530606444645,
      "height_km": 360.5336597079468,
      "semi_major_axis_km": 6737.855923908047,
      "eccentricity": 0.0001207,
      "inclination_deg": 53.157,
      "raan_deg": 335.9502,
      "arg_perigee_deg": 83.0458,
      "mean_anomaly_deg": 277.0697,
      "mean_motion_rev_day": 15.69712735
    },
    {
      "epoch": "2026-04-16T21:58:42.032064Z",
      "apogee_km": 360.54447567613715,
      "perigee_km": 358.80423375944065,
      "latitude_deg": 4.5819288900509746e-05,
      "longitude_deg": 158.39458372660718,
      "height_km": 360.4699758896228,
      "semi_major_axis_km": 6737.811354717788,
      "eccentricity": 0.00012914,
      "inclination_deg": 53.1565,
      "raan_deg": 333.1263,
      "arg_perigee_deg": 82.2449,
      "mean_anomaly_deg": 277.8716,
      "mean_motion_rev_day": 15.6972831
    },
    {
      "epoch": "2026-04-18T21:20:53.449728Z",
      "apogee_km": 360.6088833528065,
      "perigee_km": 358.72095125557735,
      "latitude_deg": -5.579221350450216e-06,
      "longitude_deg": 156.1703630109032,
      "height_km": 360.152952416529,
      "semi_major_axis_km": 6737.801917304191,
      "eccentricity": 0.0001401,
      "inclination_deg": 53.1575,
      "raan_deg": 323.3951,
      "arg_perigee_deg": 63.2306,
      "mean_anomaly_deg": 296.8855,
      "mean_motion_rev_day": 15.69731608
    }
  ]
}